[
    {
        "Altitude(m)": 604983.0530155317,
        "Argument of Periapsis(deg)": 0.0,
        "Eccentricity": 0.0,
        "Inclination(deg)": 60.0,
        "Latitude(deg)": -0.0926866044592598,
        "Longitude(deg)": -19.916083466387814,
        "Mean Anomaly(deg)": -180.0,
        "RAAN(deg)": 260.0,
        "Satellite Name": "Test1 1155",
        "Satellite Number": 1155,
        "Semi-Major Axis(m)": 6980739.136638005,
        "Time(s)": 0
    },
    {
        "Altitude(m)": 605055.3327427028,
        "Argument of Periapsis(deg)": 0.00010418945913296404,
        "Eccentricity": 0.0,
        "Inclination(deg)": 60.0,
        "Latitude(deg)": -0.6330960895682121,
        "Longitude(deg)": -19.647957779433202,
        "Mean Anomaly(deg)": -179.37989385453815,
        "RAAN(deg)": 259.99957995086027,
        "Satellite Name": "Test1 1155",
        "Satellite Number": 1155,
        "Semi-Major Axis(m)": 6980739.136638005,
        "Time(s)": 10
    },
    {
        "Altitude(m)": 605130.8215251766,
        "Argument of Periapsis(deg)": 0.0002083789182659281,
        "Eccentricity": 0.0,
        "Inclination(deg)": 60.0,
        "Latitude(deg)": -1.1734746533074452,
        "Longitude(deg)": -19.379774451756713,
        "Mean Anomaly(deg)": -178.75978770907636,
        "RAAN(deg)": 259.9991599017205,
        "Satellite Name": "Test1 1155",
        "Satellite Number": 1155,
        "Semi-Major Axis(m)": 6980739.136638005,
        "Time(s)": 20
    },
    {
        "Altitude(m)": 605209.5083995154,
        "Argument of Periapsis(deg)": 0.00031256837739889213,
        "Eccentricity": 0.0,
        "Inclination(deg)": 60.0,
        "Latitude(deg)": -1.7138052151628658,
        "Longitude(deg)": -19.111479095543988,
        "Mean Anomaly(deg)": -178.1396815636145,
        "RAAN(deg)": 259.9987398525808,
        "Satellite Name": "Test1 1155",
        "Satellite Number": 1155,
        "Semi-Major Axis(m)": 6980739.136638005,
        "Time(s)": 30
    },
    {
        "Altitude(m)": 605291.3808783453,
        "Argument of Periapsis(deg)": 0.0004167578365318562,
        "Eccentricity": 0.0,
        "Inclination(deg)": 60.0,
        "Latitude(deg)": -2.2540706765678085,
        "Longitude(deg)": -18.843016755187463,
        "Mean Anomaly(deg)": -177.51957541815267,
        "RAAN(deg)": 259.998319803441,
        "Satellite Name": "Test1 1155",
        "Satellite Number": 1155,
        "Semi-Major Axis(m)": 6980739.136638005,
        "Time(s)": 40
    },
    {
        "Altitude(m)": 605376.4249536982,
        "Argument of Periapsis(deg)": 0.0005209472956648203,
        "Eccentricity": 0.0,
        "Inclination(deg)": 60.0,
        "Latitude(deg)": -2.7942539109933233,
        "Longitude(deg)": -18.574332883865527,
        "Mean Anomaly(deg)": -176.89946927269082,
        "RAAN(deg)": 259.9978997543013,
        "Satellite Name": "Test1 1155",
        "Satellite Number": 1155,
        "Semi-Major Axis(m)": 6980739.136638005,
        "Time(s)": 50
    },
    {
        "Altitude(m)": 605464.6251010812,
        "Argument of Periapsis(deg)": 0.0006251367547977843,
        "Eccentricity": 0.0,
        "Inclination(deg)": 60.0,
        "Latitude(deg)": -3.3343377539949346,
        "Longitude(deg)": -18.305372807166723,
        "Mean Anomaly(deg)": -176.27936312722903,
        "RAAN(deg)": 259.99747970516154,
        "Satellite Name": "Test1 1155",
        "Satellite Number": 1155,
        "Semi-Major Axis(m)": 6980739.136638005,
        "Time(s)": 60
    },
    {
        "Altitude(m)": 605555.9642842836,
        "Argument of Periapsis(deg)": 0.0007293262139307483,
        "Eccentricity": 0.0,
        "Inclination(deg)": 60.0,
        "Latitude(deg)": -3.874304993207399,
        "Longitude(deg)": -18.03608118660002,
        "Mean Anomaly(deg)": -175.6592569817672,
        "RAAN(deg)": 259.9970596560218,
        "Satellite Name": "Test1 1155",
        "Satellite Number": 1155,
        "Semi-Major Axis(m)": 6980739.136638005,
        "Time(s)": 70
    },
    {
        "Altitude(m)": 605650.4239609321,
        "Argument of Periapsis(deg)": 0.0008335156730637124,
        "Eccentricity": 0.0,
        "Inclination(deg)": 60.0,
        "Latitude(deg)": -4.414138358273328,
        "Longitude(deg)": -17.766402995838792,
        "Mean Anomaly(deg)": -175.03915083630537,
        "RAAN(deg)": 259.99663960688207,
        "Satellite Name": "Test1 1155",
        "Satellite Number": 1155,
        "Semi-Major Axis(m)": 6980739.136638005,
        "Time(s)": 80
    },
    {
        "Altitude(m)": 605747.9840888168,
        "Argument of Periapsis(deg)": 0.0009377051321966765,
        "Eccentricity": 0.0,
        "Inclination(deg)": 60.0,
        "Latitude(deg)": -4.953820510690229,
        "Longitude(deg)": -17.49628298392101,
        "Mean Anomaly(deg)": -174.41904469084352,
        "RAAN(deg)": 259.99621955774234,
        "Satellite Name": "Test1 1155",
        "Satellite Number": 1155,
        "Semi-Major Axis(m)": 6980739.136638005,
        "Time(s)": 90
    },
    {
        "Altitude(m)": 605848.6231329223,
        "Argument of Periapsis(deg)": 0.0010418945913296407,
        "Eccentricity": 0.0,
        "Inclination(deg)": 60.0,
        "Latitude(deg)": -5.493334033562407,
        "Longitude(deg)": -17.225665138250793,
        "Mean Anomaly(deg)": -173.79893854538167,
        "RAAN(deg)": 259.99579950860254,
        "Satellite Name": "Test1 1155",
        "Satellite Number": 1155,
        "Semi-Major Axis(m)": 6980739.136638005,
        "Time(s)": 100
    },
    {
        "Altitude(m)": 605952.3180731919,
        "Argument of Periapsis(deg)": 0.0011460840504626045,
        "Eccentricity": 0.0,
        "Inclination(deg)": 60.0,
        "Latitude(deg)": -6.0326614212479015,
        "Longitude(deg)": -16.954493660245724,
        "Mean Anomaly(deg)": -173.17883239991986,
        "RAAN(deg)": 259.99537945946287,
        "Satellite Name": "Test1 1155",
        "Satellite Number": 1155,
        "Semi-Major Axis(m)": 6980739.136638005,
        "Time(s)": 110
    },
    {
        "Altitude(m)": 606059.0444130575,
        "Argument of Periapsis(deg)": 0.0012502735095955685,
        "Eccentricity": 0.0,
        "Inclination(deg)": 60.0,
        "Latitude(deg)": -6.571785068880487,
        "Longitude(deg)": -16.68271242785426,
        "Mean Anomaly(deg)": -172.558726254458,
        "RAAN(deg)": 259.9949594103231,
        "Satellite Name": "Test1 1155",
        "Satellite Number": 1155,
        "Semi-Major Axis(m)": 6980739.136638005,
        "Time(s)": 120
    },
    {
        "Altitude(m)": 606168.7761886508,
        "Argument of Periapsis(deg)": 0.0013544629687285324,
        "Eccentricity": 0.0,
        "Inclination(deg)": 60.0,
        "Latitude(deg)": -7.110687261755305,
        "Longitude(deg)": -16.410264457787413,
        "Mean Anomaly(deg)": -171.93862010899622,
        "RAAN(deg)": 259.99453936118334,
        "Satellite Name": "Test1 1155",
        "Satellite Number": 1155,
        "Semi-Major Axis(m)": 6980739.136638005,
        "Time(s)": 130
    },
    {
        "Altitude(m)": 606281.4859787854,
        "Argument of Periapsis(deg)": 0.0014586524278614966,
        "Eccentricity": 0.0,
        "Inclination(deg)": 60.0,
        "Latitude(deg)": -7.6493501645668855,
        "Longitude(deg)": -16.137092880308593,
        "Mean Anomaly(deg)": -171.31851396353437,
        "RAAN(deg)": 259.9941193120436,
        "Satellite Name": "Test1 1155",
        "Satellite Number": 1155,
        "Semi-Major Axis(m)": 6980739.136638005,
        "Time(s)": 140
    },
    {
        "Altitude(m)": 606397.144915599,
        "Argument of Periapsis(deg)": 0.0015628418869944607,
        "Eccentricity": 0.0,
        "Inclination(deg)": 60.0,
        "Latitude(deg)": -8.187755810478711,
        "Longitude(deg)": -15.863140400806643,
        "Mean Anomaly(deg)": -170.6984078180725,
        "RAAN(deg)": 259.9936992629039,
        "Satellite Name": "Test1 1155",
        "Satellite Number": 1155,
        "Semi-Major Axis(m)": 6980739.136638005,
        "Time(s)": 150
    },
    {
        "Altitude(m)": 606515.7226959481,
        "Argument of Periapsis(deg)": 0.0016670313461274247,
        "Eccentricity": 0.0,
        "Inclination(deg)": 60.0,
        "Latitude(deg)": -8.725886090012649,
        "Longitude(deg)": -15.588348760995297,
        "Mean Anomaly(deg)": -170.0783016726107,
        "RAAN(deg)": 259.99327921376414,
        "Satellite Name": "Test1 1155",
        "Satellite Number": 1155,
        "Semi-Major Axis(m)": 6980739.136638005,
        "Time(s)": 160
    },
    {
        "Altitude(m)": 606637.1875934922,
        "Argument of Periapsis(deg)": 0.0017712208052603888,
        "Eccentricity": 0.0,
        "Inclination(deg)": 60.0,
        "Latitude(deg)": -9.263722739746132,
        "Longitude(deg)": -15.312659712583292,
        "Mean Anomaly(deg)": -169.45819552714892,
        "RAAN(deg)": 259.9928591646244,
        "Satellite Name": "Test1 1155",
        "Satellite Number": 1155,
        "Semi-Major Axis(m)": 6980739.136638005,
        "Time(s)": 170
    },
    {
        "Altitude(m)": 606761.5064714665,
        "Argument of Periapsis(deg)": 0.001875410264393353,
        "Eccentricity": 0.0,
        "Inclination(deg)": 60.0,
        "Latitude(deg)": -9.801247330795206,
        "Longitude(deg)": -15.036014477639874,
        "Mean Anomaly(deg)": -168.83808938168704,
        "RAAN(deg)": 259.9924391154846,
        "Satellite Name": "Test1 1155",
        "Satellite Number": 1155,
        "Semi-Major Axis(m)": 6980739.136638005,
        "Time(s)": 180
    },
    {
        "Altitude(m)": 606888.6447961744,
        "Argument of Periapsis(deg)": 0.0019795997235263173,
        "Eccentricity": 0.0,
        "Inclination(deg)": 60.0,
        "Latitude(deg)": -10.338441257071258,
        "Longitude(deg)": -14.758353208498177,
        "Mean Anomaly(deg)": -168.21798323622525,
        "RAAN(deg)": 259.99201906634494,
        "Satellite Name": "Test1 1155",
        "Satellite Number": 1155,
        "Semi-Major Axis(m)": 6980739.136638005,
        "Time(s)": 190
    }
]